[{"OBJECT_NAME":"STARLINK-35158","OBJECT_ID":"2025-257B","EPOCH":"2026-03-09T17:23:05.467776","MEAN_MOTION":15.30195403,"ECCENTRICITY":0.00010004,"INCLINATION":53.1596,"RA_OF_ASC_NODE":217.2318,"ARG_OF_PERICENTER":90.2549,"MEAN_ANOMALY":269.8567,"EPHEMERIS_TYPE":0,"CLASSIFICATION_TYPE":"U","NORAD_CAT_ID":66381,"ELEMENT_SET_NO":999,"REV_AT_EPOCH":1973,"BSTAR":0.00077466163,"MEAN_MOTION_DOT":0.00022651,"MEAN_MOTION_DDOT":0},{"OBJECT_NAME":"FENGYUN 1C DEB","OBJECT_ID":"1999-025QK","EPOCH":"2026-03-09T09:38:35.752416","MEAN_MOTION":15.21777611,"ECCENTRICITY":0.00584989,"INCLINATION":98.8236,"RA_OF_ASC_NODE":15.4163,"ARG_OF_PERICENTER":235.7553,"MEAN_ANOMALY":123.8129,"EPHEMERIS_TYPE":0,"CLASSIFICATION_TYPE":"U","NORAD_CAT_ID":30082,"ELEMENT_SET_NO":999,"REV_AT_EPOCH":2608,"BSTAR":0.001566847,"MEAN_MOTION_DOT":0.00037313,"MEAN_MOTION_DDOT":0}]
